[{"OBJECT_NAME":"STARLINK-4053","OBJECT_ID":"2022-101K","EPOCH":"2026-03-09T08:55:39.237888","MEAN_MOTION":15.08840743,"ECCENTRICITY":0.00015904,"INCLINATION":53.2192,"RA_OF_ASC_NODE":65.4667,"ARG_OF_PERICENTER":84.1524,"MEAN_ANOMALY":275.9649,"EPHEMERIS_TYPE":0,"CLASSIFICATION_TYPE":"U","NORAD_CAT_ID":53536,"ELEMENT_SET_NO":999,"REV_AT_EPOCH":19625,"BSTAR":-4.4205589e-5,"MEAN_MOTION_DOT":-9.92e-6,"MEAN_MOTION_DDOT":0},{"OBJECT_NAME":"COSMOS 2251 DEB","OBJECT_ID":"1993-036EU","EPOCH":"2026-03-09T14:44:02.306976","MEAN_MOTION":15.10275873,"ECCENTRICITY":0.0002082,"INCLINATION":74.0027,"RA_OF_ASC_NODE":262.4484,"ARG_OF_PERICENTER":258.1067,"MEAN_ANOMALY":101.9891,"EPHEMERIS_TYPE":0,"CLASSIFICATION_TYPE":"U","NORAD_CAT_ID":33939,"ELEMENT_SET_NO":999,"REV_AT_EPOCH":90059,"BSTAR":0.0040153,"MEAN_MOTION_DOT":0.00066338,"MEAN_MOTION_DDOT":0}]
